[{"OBJECT_NAME":"STARLINK-5280","OBJECT_ID":"2022-141K","EPOCH":"2026-03-21T22:19:12.747360","MEAN_MOTION":15.08844816,"ECCENTRICITY":0.00014255,"INCLINATION":53.2181,"RA_OF_ASC_NODE":309.3025,"ARG_OF_PERICENTER":89.0758,"MEAN_ANOMALY":271.0397,"EPHEMERIS_TYPE":0,"CLASSIFICATION_TYPE":"U","NORAD_CAT_ID":54166,"ELEMENT_SET_NO":999,"REV_AT_EPOCH":18770,"BSTAR":7.4535242e-5,"MEAN_MOTION_DOT":8.99e-6,"MEAN_MOTION_DDOT":0},{"OBJECT_NAME":"STARLINK-5243","OBJECT_ID":"2022-141L","EPOCH":"2026-03-21T21:35:26.186496","MEAN_MOTION":15.08842129,"ECCENTRICITY":0.00015119,"INCLINATION":53.2187,"RA_OF_ASC_NODE":319.09,"ARG_OF_PERICENTER":91.465,"MEAN_ANOMALY":268.6515,"EPHEMERIS_TYPE":0,"CLASSIFICATION_TYPE":"U","NORAD_CAT_ID":54167,"ELEMENT_SET_NO":999,"REV_AT_EPOCH":18756,"BSTAR":4.4728544e-5,"MEAN_MOTION_DOT":4.24e-6,"MEAN_MOTION_DDOT":0},{"OBJECT_NAME":"STARLINK-5245","OBJECT_ID":"2022-141M","EPOCH":"2026-03-21T22:13:54.254496","MEAN_MOTION":15.08845867,"ECCENTRICITY":0.00012804,"INCLINATION":53.2183,"RA_OF_ASC_NODE":309.2802,"ARG_OF_PERICENTER":87.2803,"MEAN_ANOMALY":272.8336,"EPHEMERIS_TYPE":0,"CLASSIFICATION_TYPE":"U","NORAD_CAT_ID":54168,"ELEMENT_SET_NO":999,"REV_AT_EPOCH":18770,"BSTAR":4.5196271e-5,"MEAN_MOTION_DOT":4.32e-6,"MEAN_MOTION_DDOT":0},{"OBJECT_NAME":"STARLINK-5282","OBJECT_ID":"2022-141N","EPOCH":"2026-03-21T22:35:00.691008","MEAN_MOTION":15.08844471,"ECCENTRICITY":0.00013847,"INCLINATION":53.2177,"RA_OF_ASC_NODE":308.673,"ARG_OF_PERICENTER":87.8416,"MEAN_ANOMALY":272.2734,"EPHEMERIS_TYPE":0,"CLASSIFICATION_TYPE":"U","NORAD_CAT_ID":54169,"ELEMENT_SET_NO":999,"REV_AT_EPOCH":18771,"BSTAR":5.6704729e-5,"MEAN_MOTION_DOT":6.15e-6,"MEAN_MOTION_DDOT":0},{"OBJECT_NAME":"STARLINK-5155","OBJECT_ID":"2022-141P","EPOCH":"2026-03-21T20:33:13.075776","MEAN_MOTION":15.08844518,"ECCENTRICITY":0.00013651,"INCLINATION":53.2183,"RA_OF_ASC_NODE":309.5547,"ARG_OF_PERICENTER":92.4563,"MEAN_ANOMALY":267.6586,"EPHEMERIS_TYPE":0,"CLASSIFICATION_TYPE":"U","NORAD_CAT_ID":54170,"ELEMENT_SET_NO":999,"REV_AT_EPOCH":18769,"BSTAR":7.5379441e-5,"MEAN_MOTION_DOT":9.12e-6,"MEAN_MOTION_DDOT":0},{"OBJECT_NAME":"STARLINK-5117","OBJECT_ID":"2022-141R","EPOCH":"2026-03-21T21:57:59.294304","MEAN_MOTION":15.0884322,"ECCENTRICITY":0.00014453,"INCLINATION":53.218,"RA_OF_ASC_NODE":309.2102,"ARG_OF_PERICENTER":91.9381,"MEAN_ANOMALY":268.1776,"EPHEMERIS_TYPE":0,"CLASSIFICATION_TYPE":"U","NORAD_CAT_ID":54172,"ELEMENT_SET_NO":999,"REV_AT_EPOCH":18770,"BSTAR":5.3913154e-5,"MEAN_MOTION_DOT":5.7e-6,"MEAN_MOTION_DDOT":0},{"OBJECT_NAME":"STARLINK-5242","OBJECT_ID":"2022-141S","EPOCH":"2026-03-21T21:04:57.106272","MEAN_MOTION":15.08833928,"ECCENTRICITY":0.00015374,"INCLINATION":53.2185,"RA_OF_ASC_NODE":308.9853,"ARG_OF_PERICENTER":79.3587,"MEAN_ANOMALY":280.7579,"EPHEMERIS_TYPE":0,"CLASSIFICATION_TYPE":"U","NORAD_CAT_ID":54173,"ELEMENT_SET_NO":999,"REV_AT_EPOCH":18770,"BSTAR":-4.9177342e-5,"MEAN_MOTION_DOT":-1.07e-5,"MEAN_MOTION_DDOT":0},{"OBJECT_NAME":"STARLINK-5248","OBJECT_ID":"2022-141T","EPOCH":"2026-03-21T21:14:53.608416","MEAN_MOTION":15.08845499,"ECCENTRICITY":0.00015373,"INCLINATION":53.2161,"RA_OF_ASC_NODE":254.1136,"ARG_OF_PERICENTER":104.7601,"MEAN_ANOMALY":255.3562,"EPHEMERIS_TYPE":0,"CLASSIFICATION_TYPE":"U","NORAD_CAT_ID":54174,"ELEMENT_SET_NO":999,"REV_AT_EPOCH":18847,"BSTAR":-2.9944367e-5,"MEAN_MOTION_DOT":-7.65e-6,"MEAN_MOTION_DDOT":0},{"OBJECT_NAME":"STARLINK-5256","OBJECT_ID":"2022-141U","EPOCH":"2026-03-21T20:27:54.572544","MEAN_MOTION":15.08845007,"ECCENTRICITY":0.00013485,"INCLINATION":53.2177,"RA_OF_ASC_NODE":309.5314,"ARG_OF_PERICENTER":89.784,"MEAN_ANOMALY":270.3307,"EPHEMERIS_TYPE":0,"CLASSIFICATION_TYPE":"U","NORAD_CAT_ID":54175,"ELEMENT_SET_NO":999,"REV_AT_EPOCH":18769,"BSTAR":0.00011284782,"MEAN_MOTION_DOT":1.509e-5,"MEAN_MOTION_DDOT":0},{"OBJECT_NAME":"STARLINK-5154","OBJECT_ID":"2022-141V","EPOCH":"2026-03-22T02:28:13.003392","MEAN_MOTION":15.08851948,"ECCENTRICITY":0.00014703,"INCLINATION":53.2174,"RA_OF_ASC_NODE":308.2506,"ARG_OF_PERICENTER":98.9598,"MEAN_ANOMALY":261.1561,"EPHEMERIS_TYPE":0,"CLASSIFICATION_TYPE":"U","NORAD_CAT_ID":54176,"ELEMENT_SET_NO":999,"REV_AT_EPOCH":18773,"BSTAR":-0.00010829479,"MEAN_MOTION_DOT":-2.012e-5,"MEAN_MOTION_DDOT":0},{"OBJECT_NAME":"STARLINK-5186","OBJECT_ID":"2022-141W","EPOCH":"2026-03-21T21:52:40.518048","MEAN_MOTION":15.08844413,"ECCENTRICITY":0.00014741,"INCLINATION":53.2174,"RA_OF_ASC_NODE":309.1857,"ARG_OF_PERICENTER":87.5229,"MEAN_ANOMALY":272.5932,"EPHEMERIS_TYPE":0,"CLASSIFICATION_TYPE":"U","NORAD_CAT_ID":54177,"ELEMENT_SET_NO":999,"REV_AT_EPOCH":18770,"BSTAR":0.00013425232,"MEAN_MOTION_DOT":1.85e-5,"MEAN_MOTION_DDOT":0},{"OBJECT_NAME":"STARLINK-5164","OBJECT_ID":"2022-141X","EPOCH":"2026-03-21T21:20:50.562240","MEAN_MOTION":15.08840688,"ECCENTRICITY":0.00010239,"INCLINATION":53.2171,"RA_OF_ASC_NODE":309.0327,"ARG_OF_PERICENTER":77.7437,"MEAN_ANOMALY":282.3669,"EPHEMERIS_TYPE":0,"CLASSIFICATION_TYPE":"U","NORAD_CAT_ID":54178,"ELEMENT_SET_NO":999,"REV_AT_EPOCH":18770,"BSTAR":-7.8381155e-5,"MEAN_MOTION_DOT":-1.535e-5,"MEAN_MOTION_DDOT":0},{"OBJECT_NAME":"STARLINK-5122","OBJECT_ID":"2022-141Y","EPOCH":"2026-03-21T21:47:22.921152","MEAN_MOTION":15.08832088,"ECCENTRICITY":0.00014676,"INCLINATION":53.2189,"RA_OF_ASC_NODE":309.1648,"ARG_OF_PERICENTER":84.7353,"MEAN_ANOMALY":275.3807,"EPHEMERIS_TYPE":0,"CLASSIFICATION_TYPE":"U","NORAD_CAT_ID":54179,"ELEMENT_SET_NO":999,"REV_AT_EPOCH":18770,"BSTAR":-2.7298953e-5,"MEAN_MOTION_DOT":-7.22e-6,"MEAN_MOTION_DDOT":0},{"OBJECT_NAME":"STARLINK-5228","OBJECT_ID":"2022-141Z","EPOCH":"2026-03-22T06:00:02.000160","MEAN_MOTION":15.42660321,"ECCENTRICITY":7.591e-5,"INCLINATION":53.2163,"RA_OF_ASC_NODE":304.7806,"ARG_OF_PERICENTER":99.3444,"MEAN_ANOMALY":346.0942,"EPHEMERIS_TYPE":0,"CLASSIFICATION_TYPE":"U","NORAD_CAT_ID":54180,"ELEMENT_SET_NO":999,"REV_AT_EPOCH":575,"BSTAR":0.01071864,"MEAN_MOTION_DOT":0.00506583,"MEAN_MOTION_DDOT":0},{"OBJECT_NAME":"STARLINK-5227","OBJECT_ID":"2022-141AA","EPOCH":"2026-03-21T21:31:27.550560","MEAN_MOTION":15.08851276,"ECCENTRICITY":0.00014656,"INCLINATION":53.2166,"RA_OF_ASC_NODE":309.0999,"ARG_OF_PERICENTER":85.4309,"MEAN_ANOMALY":274.6851,"EPHEMERIS_TYPE":0,"CLASSIFICATION_TYPE":"U","NORAD_CAT_ID":54181,"ELEMENT_SET_NO":999,"REV_AT_EPOCH":18770,"BSTAR":0.00024189493,"MEAN_MOTION_DOT":3.565e-5,"MEAN_MOTION_DDOT":0},{"OBJECT_NAME":"STARLINK-5231","OBJECT_ID":"2022-141AB","EPOCH":"2026-03-22T01:44:28.692384","MEAN_MOTION":15.08843494,"ECCENTRICITY":0.00014407,"INCLINATION":53.2167,"RA_OF_ASC_NODE":278.1667,"ARG_OF_PERICENTER":96.2011,"MEAN_ANOMALY":263.9146,"EPHEMERIS_TYPE":0,"CLASSIFICATION_TYPE":"U","NORAD_CAT_ID":54182,"ELEMENT_SET_NO":999,"REV_AT_EPOCH":18815,"BSTAR":0.00011274598,"MEAN_MOTION_DOT":1.507e-5,"MEAN_MOTION_DDOT":0},{"OBJECT_NAME":"STARLINK-5239","OBJECT_ID":"2022-141AC","EPOCH":"2026-03-21T19:34:51.188736","MEAN_MOTION":15.08844116,"ECCENTRICITY":0.00011451,"INCLINATION":53.2187,"RA_OF_ASC_NODE":309.3079,"ARG_OF_PERICENTER":85.2755,"MEAN_ANOMALY":274.8368,"EPHEMERIS_TYPE":0,"CLASSIFICATION_TYPE":"U","NORAD_CAT_ID":54183,"ELEMENT_SET_NO":999,"REV_AT_EPOCH":18769,"BSTAR":5.7468224e-5,"MEAN_MOTION_DOT":6.27e-6,"MEAN_MOTION_DDOT":0},{"OBJECT_NAME":"STARLINK-5162","OBJECT_ID":"2022-141AD","EPOCH":"2026-03-21T21:17:02.740128","MEAN_MOTION":15.08832135,"ECCENTRICITY":0.0001389,"INCLINATION":53.2174,"RA_OF_ASC_NODE":309.7286,"ARG_OF_PERICENTER":91.4812,"MEAN_ANOMALY":268.6339,"EPHEMERIS_TYPE":0,"CLASSIFICATION_TYPE":"U","NORAD_CAT_ID":54184,"ELEMENT_SET_NO":999,"REV_AT_EPOCH":18769,"BSTAR":0.00015114436,"MEAN_MOTION_DOT":2.118e-5,"MEAN_MOTION_DDOT":0},{"OBJECT_NAME":"STARLINK-5235","OBJECT_ID":"2022-141AE","EPOCH":"2026-03-21T21:26:09.176928","MEAN_MOTION":15.08842602,"ECCENTRICITY":0.00011985,"INCLINATION":53.2173,"RA_OF_ASC_NODE":309.077,"ARG_OF_PERICENTER":93.788,"MEAN_ANOMALY":266.3249,"EPHEMERIS_TYPE":0,"CLASSIFICATION_TYPE":"U","NORAD_CAT_ID":54185,"ELEMENT_SET_NO":999,"REV_AT_EPOCH":18770,"BSTAR":0.00017190405,"MEAN_MOTION_DOT":2.449e-5,"MEAN_MOTION_DDOT":0},{"OBJECT_NAME":"STARLINK-5240","OBJECT_ID":"2022-141AG","EPOCH":"2026-03-21T21:36:46.209312","MEAN_MOTION":15.08856807,"ECCENTRICITY":0.00014754,"INCLINATION":53.2163,"RA_OF_ASC_NODE":309.1295,"ARG_OF_PERICENTER":91.7991,"MEAN_ANOMALY":268.317,"EPHEMERIS_TYPE":0,"CLASSIFICATION_TYPE":"U","NORAD_CAT_ID":54187,"ELEMENT_SET_NO":999,"REV_AT_EPOCH":18770,"BSTAR":0.00023937692,"MEAN_MOTION_DOT":3.525e-5,"MEAN_MOTION_DDOT":0},{"OBJECT_NAME":"STARLINK-5238","OBJECT_ID":"2022-141AH","EPOCH":"2026-03-21T20:45:09.658368","MEAN_MOTION":15.08845352,"ECCENTRICITY":0.00013929,"INCLINATION":53.2173,"RA_OF_ASC_NODE":299.6268,"ARG_OF_PERICENTER":88.3831,"MEAN_ANOMALY":271.7321,"EPHEMERIS_TYPE":0,"CLASSIFICATION_TYPE":"U","NORAD_CAT_ID":54188,"ELEMENT_SET_NO":999,"REV_AT_EPOCH":18783,"BSTAR":9.157846e-5,"MEAN_MOTION_DOT":1.17e-5,"MEAN_MOTION_DDOT":0},{"OBJECT_NAME":"STARLINK-5281","OBJECT_ID":"2022-141AK","EPOCH":"2026-03-21T22:15:14.294592","MEAN_MOTION":15.08848705,"ECCENTRICITY":0.00014049,"INCLINATION":53.2177,"RA_OF_ASC_NODE":299.3064,"ARG_OF_PERICENTER":92.5071,"MEAN_ANOMALY":267.6082,"EPHEMERIS_TYPE":0,"CLASSIFICATION_TYPE":"U","NORAD_CAT_ID":54190,"ELEMENT_SET_NO":999,"REV_AT_EPOCH":18784,"BSTAR":0.00015730808,"MEAN_MOTION_DOT":2.217e-5,"MEAN_MOTION_DDOT":0},{"OBJECT_NAME":"STARLINK-4619","OBJECT_ID":"2022-141AL","EPOCH":"2026-03-21T20:55:46.149024","MEAN_MOTION":15.08854345,"ECCENTRICITY":0.00013563,"INCLINATION":53.217,"RA_OF_ASC_NODE":299.6723,"ARG_OF_PERICENTER":90.8794,"MEAN_ANOMALY":269.2354,"EPHEMERIS_TYPE":0,"CLASSIFICATION_TYPE":"U","NORAD_CAT_ID":54191,"ELEMENT_SET_NO":999,"REV_AT_EPOCH":18783,"BSTAR":0.00012234927,"MEAN_MOTION_DOT":1.661e-5,"MEAN_MOTION_DDOT":0}]
